GLOBALSTAR M024         
1 25883U 99043A   24350.72276568 -.00000005  00000+0  21139-2 0  9991
2 25883  52.0030  74.5797 0002226 145.8152  25.5812 11.10162701 94483
GLOBALSTAR M027         
1 25884U 99043B   24350.84625886 -.00000118  00000+0 -20570-2 0  9990
2 25884  52.0175 147.0891 0022117  57.7870 302.5064 11.04371191120984
GLOBALSTAR M054         
1 25885U 99043C   24351.38683828  .00000060  00000+0  33430-2 0  9994
2 25885  52.0156 303.8641 0005598 226.7094 309.6106 11.39209490 98540
GLOBALSTAR M053         
1 25886U 99043D   24350.85717911 -.00000009  00000+0  17471-2 0  9998
2 25886  51.9971 242.0562 0004007 113.8497 336.4112 11.27661364 98765
GLOBALSTAR M058         
1 25907U 99049A   24351.77264037 -.00000146  00000+0 -82432-3 0  9999
2 25907  51.9929 236.2685 0001129 321.6019  38.4735 11.93191092130973
GLOBALSTAR M050         
1 25908U 99049B   24351.76178340 -.00000107  00000+0 -20817-3 0  9996
2 25908  51.9987 257.6022 0009940  30.9357  17.2793 12.07446249130886
GLOBALSTAR M033         
1 25909U 99049C   24350.87258027 -.00000112  00000+0 -19956-3 0  9997
2 25909  51.9889 144.5351 0011788 242.4060 117.5591 12.20293126513368
GLOBALSTAR M055         
1 25910U 99049D   24351.00491325 -.00000075  00000+0  16574-3 0  9995
2 25910  51.9988 163.8277 0008265 109.1526 251.0221 12.29417104145978
